TYVAK-0130              
1 48606U 21041BF  26068.48452211  .00008857  00000+0  35198-3 0  9997
2 48606  52.9967 128.6030 0008953 215.1647 144.8760 15.26049141265157
STARLINK-31615          
1 59413U 24064R   26067.24197755  .00001792  00000+0  74625-4 0  9995
2 59413  43.0017  57.4665 0001108 254.6270 105.4459 15.27584219109088
